NORAD_CAT_ID,OBJECT_NAME,OBJECT_TYPE,EPOCH,MEAN_MOTION,ECCENTRICITY,INCLINATION,RA_OF_ASC_NODE,ARG_OF_PERICENTER,MEAN_ANOMALY,BSTAR,MEAN_MOTION_DOT,MEAN_MOTION_DDOT,TLE_LINE0,TLE_LINE1,TLE_LINE2,SEMIMAJOR_AXIS,PERIOD,APOGEE,PERIGEE,DECAYED
55289.0,STARLINK-5320,PAYLOAD,2024-03-28 04:56:38,14.98342938,0.0002706,70.0007,18.4496,267.988,92.097,0.0003486,4.07e-05,0.0,0 STARLINK-5320,1 55289U 23010W   24088.20600669  .00004070  00000-0  34860-3 0  9991,2 55289  70.0007  18.4496 0002706 267.9880  92.0970 14.98342938 66383,6950.153,96.106,573.899,570.137,0.0
55289.0,STARLINK-5320,PAYLOAD,2024-03-28 12:57:20,14.98331886,0.0001933,70.0031,17.6065,285.5415,74.5531,0.00015901,1.805e-05,0.0,0 STARLINK-5320,1 55289U 23010W   24088.53982018  .00001805  00000-0  15901-3 0  9996,2 55289  70.0031  17.6065 0001933 285.5415  74.5531 14.98331886 66438,6950.187,96.107,573.396,570.709,0.0
55289.0,STARLINK-5320,PAYLOAD,2024-03-28 22:34:08,14.9833526,0.0002284,70.0003,16.5964,274.4524,85.6374,-1.6764e-05,-2.93e-06,0.0,0 STARLINK-5320,1 55289U 23010W   24088.94037938 -.00000293  00000-0 -16764-4 0  9994,2 55289  70.0003  16.5964 0002284 274.4524  85.6374 14.98335260 66800,6950.177,96.107,573.629,570.454,0.0
55289.0,STARLINK-5320,PAYLOAD,2024-03-29 04:58:41,14.98330473,0.0002508,70.0011,15.924,270.3225,89.7647,-0.00013521,-1.706e-05,0.0,0 STARLINK-5320,1 55289U 23010W   24089.20742519 -.00001706  00000-0 -13521-3 0  9999,2 55289  70.0011  15.9240 0002508 270.3225  89.7647 14.98330473 66530,6950.191,96.107,573.8,570.313,0.0
55289.0,STARLINK-5320,PAYLOAD,2024-03-29 17:47:44,14.98347243,0.0002706,70.0002,14.5761,272.5932,87.4917,-5.2183e-05,-7.16e-06,0.0,0 STARLINK-5320,1 55289U 23010W   24089.74148872 -.00000716  00000-0 -52183-4 0  9998,2 55289  70.0002  14.5761 0002706 272.5932  87.4917 14.98347243 66619,6950.14,96.106,573.885,570.124,0.0
55289.0,STARLINK-5320,PAYLOAD,2024-03-29 22:36:08,14.9834685,0.000296,69.9999,14.072,275.9992,84.0829,-2.8217e-05,-4.3e-06,0.0,0 STARLINK-5320,1 55289U 23010W   24089.94176602 -.00000430  00000-0 -28217-4 0  9996,2 55289  69.9999  14.0720 0002960 275.9992  84.0829 14.98346850 66951,6950.141,96.106,574.063,569.949,0.0
55289.0,STARLINK-5320,PAYLOAD,2024-03-30 05:00:39,14.98365099,0.0002646,70.0006,13.3994,275.2094,84.8763,6.0337e-05,6.28e-06,0.0,0 STARLINK-5320,1 55289U 23010W   24090.20878719  .00000628  00000-0  60337-4 0  9991,2 55289  70.0006  13.3994 0002646 275.2094  84.8763 14.98365099 66686,6950.084,96.105,573.788,570.11,0.0
55289.0,STARLINK-5320,PAYLOAD,2024-03-30 17:49:46,14.98313411,0.0002674,70.0003,12.0531,271.9974,88.0879,-6.992e-05,-9.27e-06,0.0,0 STARLINK-5320,1 55289U 23010W   24090.74290072 -.00000927  00000-0 -69920-4 0  9991,2 55289  70.0003  12.0531 0002674 271.9974  88.0879 14.98313411 66761,6950.244,96.108,573.968,570.251,0.0
55289.0,STARLINK-5320,PAYLOAD,2024-03-30 22:38:11,14.98308835,0.0002946,70.0,11.5466,273.288,86.7942,-0.00010779,-1.378e-05,0.0,0 STARLINK-5320,1 55289U 23010W   24090.94318663 -.00001378  00000-0 -10779-3 0  9998,2 55289  70.0000  11.5466 0002946 273.2880  86.7942 14.98308835 67101,6950.258,96.108,574.171,570.076,0.0
55289.0,STARLINK-5320,PAYLOAD,2024-03-31 11:27:15,14.98309652,0.0002619,70.0003,10.2014,269.3212,90.7647,9.9115e-05,1.089e-05,0.0,0 STARLINK-5320,1 55289U 23010W   24091.47726661  .00001089  00000-0  99115-4 0  9997,2 55289  70.0003  10.2014 0002619 269.3212  90.7647 14.98309652 67184,6950.256,96.108,573.941,570.301,0.0
55289.0,STARLINK-5320,PAYLOAD,2024-03-31 21:04:03,14.98334014,0.0003027,69.9995,9.1904,272.8664,87.2149,-0.0002382,-2.934e-05,0.0,0 STARLINK-5320,1 55289U 23010W   24091.87781974 -.00002934  00000-0 -23820-3 0  9990,2 55289  69.9995   9.1904 0003027 272.8664  87.2149 14.98334014 66930,6950.18,96.107,574.149,569.942,0.0
55289.0,STARLINK-5320,PAYLOAD,2024-04-01 03:28:35,14.98340759,0.0002746,70.0002,8.5177,270.497,89.5874,-9.4119e-05,-1.216e-05,0.0,0 STARLINK-5320,1 55289U 23010W   24092.14485085 -.00001216  00000-0 -94119-4 0  9997,2 55289  70.0002   8.5177 0002746 270.4970  89.5874 14.98340759 66975,6950.16,96.106,573.933,570.116,0.0
55289.0,STARLINK-5320,PAYLOAD,2024-04-01 11:29:15,14.98338376,0.0002735,69.9999,7.6762,270.7393,89.3453,-0.00020678,-2.56e-05,0.0,0 STARLINK-5320,1 55289U 23010W   24092.47865314 -.00002560  00000-0 -20678-3 0  9991,2 55289  69.9999   7.6762 0002735 270.7393  89.3453 14.98338376 67331,6950.167,96.106,573.933,570.131,0.0
55289.0,STARLINK-5320,PAYLOAD,2024-04-01 19:29:56,14.98312952,0.0002713,70.0001,6.8357,268.6873,91.3975,0.00020507,2.354e-05,0.0,0 STARLINK-5320,1 55289U 23010W   24092.81246153  .00002354  00000-0  20507-3 0  9993,2 55289  70.0001   6.8357 0002713 268.6873  91.3975 14.98312952 67079,6950.246,96.108,573.996,570.225,0.0
55289.0,STARLINK-5320,PAYLOAD,2024-04-02 11:31:17,14.98318338,0.0002629,70.0002,5.1523,270.2739,89.8119,0.00012734,1.426e-05,0.0,0 STARLINK-5320,1 55289U 23010W   24093.48006541  .00001426  00000-0  12734-3 0  9994,2 55289  70.0002   5.1523 0002629 270.2739  89.8119 14.98318338 67484,6950.229,96.108,573.921,570.267,0.0
55289.0,STARLINK-5320,PAYLOAD,2024-04-02 19:31:58,14.98325086,0.0002633,70.0004,4.3111,266.0193,94.0665,-2.9724e-05,-4.48e-06,0.0,0 STARLINK-5320,1 55289U 23010W   24093.81386652 -.00000448  00000-0 -29724-4 0  9998,2 55289  70.0004   4.3111 0002633 266.0193  94.0665 14.98325086 67226,6950.208,96.107,573.903,570.243,0.0
55289.0,STARLINK-5320,PAYLOAD,2024-04-02 21:08:06,14.98324916,0.0002638,70.0003,4.1428,266.1129,93.9729,-3.1254e-05,-4.66e-06,0.0,0 STARLINK-5320,1 55289U 23010W   24093.88062683 -.00000466  00000-0 -31254-4 0  9991,2 55289  70.0003   4.1428 0002638 266.1129  93.9729 14.98324916 67544,6950.209,96.107,573.907,570.24,0.0
55289.0,STARLINK-5320,PAYLOAD,2024-04-03 11:33:18,14.98331366,0.0002673,70.0,2.627,265.8585,94.2269,-4.3038e-05,-6.06e-06,0.0,0 STARLINK-5320,1 55289U 23010W   24094.48146337 -.00000606  00000-0 -43038-4 0  9996,2 55289  70.0000   2.6270 0002673 265.8585  94.2269 14.98331366 67630,6950.189,96.107,573.911,570.196,0.0
55289.0,STARLINK-5320,PAYLOAD,2024-04-03 19:33:58,14.98327727,0.0002749,69.9998,1.7854,268.0543,92.0301,5.1429e-05,5.21e-06,0.0,0 STARLINK-5320,1 55289U 23010W   24094.81526330  .00000521  00000-0  51429-4 0  9995,2 55289  69.9998   1.7854 0002749 268.0543  92.0301 14.98327727 67374,6950.2,96.107,573.976,570.154,0.0
55289.0,STARLINK-5320,PAYLOAD,2024-04-04 11:35:19,14.98329306,0.0002692,70.0,0.1017,268.2687,91.8164,6.6229e-06,-1.4e-07,0.0,0 STARLINK-5320,1 55289U 23010W   24095.48286329 -.00000014  00000-0  66229-5 0  9993,2 55289  70.0000   0.1017 0002692 268.2687  91.8164 14.98329306 67787,6950.195,96.107,573.931,570.189,0.0
55289.0,STARLINK-5320,PAYLOAD,2024-04-04 21:12:07,14.98328102,0.0002716,69.9999,359.0917,268.1332,91.9516,4.1242e-05,3.99e-06,0.0,0 STARLINK-5320,1 55289U 23010W   24095.88342314  .00000399  00000-0  41242-4 0  9996,2 55289  69.9999 359.0917 0002716 268.1332  91.9516 14.98328102 67537,6950.199,96.107,573.951,570.176,0.0
55289.0,STARLINK-5320,PAYLOAD,2024-04-05 03:36:39,14.98332008,0.0002743,69.9999,358.4187,268.8269,91.2576,4.5795e-05,4.54e-06,0.0,0 STARLINK-5320,1 55289U 23010W   24096.15046044  .00000454  00000-0  45795-4 0  9997,2 55289  69.9999 358.4187 0002743 268.8269  91.2576 14.98332008 67882,6950.187,96.107,573.958,570.145,0.0
55289.0,STARLINK-5320,PAYLOAD,2024-04-05 21:14:08,14.98335522,0.0002682,70.0,356.5672,270.3412,89.744,2.731e-05,2.33e-06,0.0,0 STARLINK-5320,1 55289U 23010W   24096.88481698  .00000233  00000-0  27310-4 0  9993,2 55289  70.0000 356.5672 0002682 270.3412  89.7440 14.98335522 67994,6950.176,96.107,573.905,570.177,0.0
55289.0,STARLINK-5320,PAYLOAD,2024-04-06 03:38:40,14.98338052,0.0002925,69.9999,355.8939,273.2138,86.8687,8.924e-05,9.72e-06,0.0,0 STARLINK-5320,1 55289U 23010W   24097.15185224  .00000972  00000-0  89240-4 0  9990,2 55289  69.9999 355.8939 0002925 273.2138  86.8687 14.98338052 67726,6950.168,96.106,574.066,570.0,0.0
55289.0,STARLINK-5320,PAYLOAD,2024-04-06 10:03:13,14.9832816,0.0001766,70.0022,355.2213,275.7364,84.3593,-2.2985e-05,-3.67e-06,0.0,0 STARLINK-5320,1 55289U 23010W   24097.41890326 -.00000367  00000-0 -22985-4 0  9998,2 55289  70.0022 355.2213 0001766 275.7364  84.3593 14.98328160 67767,6950.199,96.107,573.291,570.836,0.0
55289.0,STARLINK-5320,PAYLOAD,2024-04-06 22:52:17,14.98330405,0.0002393,70.0021,353.8749,273.345,86.7435,-3.9205e-06,-1.4e-06,0.0,0 STARLINK-5320,1 55289U 23010W   24097.95297878 -.00000140  00000-0 -39205-5 0  9993,2 55289  70.0021 353.8749 0002393 273.3450  86.7435 14.98330405 68151,6950.192,96.107,573.72,570.393,0.0
55289.0,STARLINK-5320,PAYLOAD,2024-04-07 10:05:13,14.98335828,0.0002509,70.0006,352.696,270.131,89.9561,-0.00015181,-1.904e-05,0.0,0 STARLINK-5320,1 55289U 23010W   24098.42029857 -.00001904  00000-0 -15181-3 0  9990,2 55289  70.0006 352.6960 0002509 270.1310  89.9561 14.98335828 67917,6950.175,96.107,573.784,570.296,0.0
55289.0,STARLINK-5320,PAYLOAD,2024-04-07 22:54:18,14.98331736,0.0002665,70.0001,351.3492,267.7973,92.2881,-4.965e-05,-6.85e-06,0.0,0 STARLINK-5320,1 55289U 23010W   24098.95437766 -.00000685  00000-0 -49650-4 0  9994,2 55289  70.0001 351.3492 0002665 267.7973  92.2881 14.98331736 68308,6950.188,96.107,573.905,570.2,0.0
55289.0,STARLINK-5320,PAYLOAD,2024-04-08 10:07:15,14.98327454,0.0002033,70.0024,350.1702,277.4766,82.6162,-3.2536e-05,-4.81e-06,0.0,0 STARLINK-5320,1 55289U 23010W   24099.42170215 -.00000481  00000-0 -32536-4 0  9999,2 55289  70.0024 350.1702 0002033 277.4766  82.6162 14.98327454 68061,6950.201,96.107,573.479,570.653,0.0
55289.0,STARLINK-5320,PAYLOAD,2024-04-08 22:56:19,14.98325682,0.0002752,69.9998,348.8242,272.1546,87.9297,8.8069e-05,9.58e-06,0.0,0 STARLINK-5320,1 55289U 23010W   24099.95577695  .00000958  00000-0  88069-4 0  9999,2 55289  69.9998 348.8242 0002752 272.1546  87.9297 14.98325682 68458,6950.206,96.107,573.984,570.159,0.0
